GLOBALSTAR M057         
1 25943U 99058A   25061.86225771 -.00000037  00000+0  50970-3 0  9990
2 25943  51.9984 289.9553 0002886 141.9805 218.1249 12.24815065153903
GLOBALSTAR M059         
1 25944U 99058B   25061.65710184 -.00000059  00000+0  33852-3 0  9999
2 25944  52.0008 135.3708 0001007 121.1266  24.8134 11.99974191561257
GLOBALSTAR M056         
1 25945U 99058C   25061.47021049 -.00000100  00000+0 -14195-3 0  9992
2 25945  51.9955 140.5737 0000455 355.3179  17.9030 12.04777094149763
GLOBALSTAR M031         
1 25946U 99058D   25061.96080199 -.00000090  00000+0  32317-5 0  9993
2 25946  51.9982  37.9243 0001275 333.8658  61.4816 12.16031354151628
GLOBALSTAR M039         
1 25961U 99062A   25061.82569306 -.00000070  00000+0  18576-3 0  9999
2 25961  51.9823 232.6724 0003610 109.5742 250.5515 12.62320115166781
GLOBALSTAR M034         
1 25962U 99062B   25061.93887758 -.00000068  00000+0  20995-3 0  9991
2 25962  51.9870 287.5760 0013672 197.2217 264.7130 11.79444758125853
GLOBALSTAR M029         
1 25963U 99062C   25062.06010858 -.00000078  00000+0  98060-4 0  9996
2 25963  51.9831  22.4062 0002259 272.6171 166.3700 11.99892049156438
GLOBALSTAR M061         
1 25964U 99062D   25061.54476015 -.00000055  00000+0  42005-3 0  9992
2 25964  51.9781 111.2156 0006452 125.9144  29.7223 11.76771233108629
